NORAD_CAT_ID,OBJECT_NAME,OBJECT_TYPE,EPOCH,MEAN_MOTION,ECCENTRICITY,INCLINATION,RA_OF_ASC_NODE,ARG_OF_PERICENTER,MEAN_ANOMALY,BSTAR,MEAN_MOTION_DOT,MEAN_MOTION_DDOT,TLE_LINE0,TLE_LINE1,TLE_LINE2,SEMIMAJOR_AXIS,PERIOD,APOGEE,PERIGEE,DECAYED
53618.0,STARLINK-4604,PAYLOAD,2023-03-11 14:03:12,15.08837873,0.0001308,53.2169,105.6612,100.4989,259.615,0.00079687,0.00012416,0.0,0 STARLINK-4604,1 53618U 22104AG  23070.58555591  .00012416  00000-0  79687-3 0  9991,2 53618  53.2169 105.6612 0001308 100.4989 259.6150 15.08837873 29880,6917.887,95.438,540.657,538.847,0.0
53618.0,STARLINK-4604,PAYLOAD,2023-03-12 05:57:03,15.08844322,0.0002076,53.2166,102.6883,124.3722,235.7467,0.00048132,7.381e-05,0.0,0 STARLINK-4604,1 53618U 22104AG  23071.24795759  .00007381  00000-0  48132-3 0  9993,2 53618  53.2166 102.6883 0002076 124.3722 235.7467 15.08844322 29981,6917.867,95.437,541.168,538.296,0.0
53618.0,STARLINK-4604,PAYLOAD,2023-03-12 13:53:59,15.08858335,0.0001591,53.2162,101.2019,106.323,253.7937,0.0010739,0.00016853,0.0,0 STARLINK-4604,1 53618U 22104AG  23071.57915567  .00016853  00000-0  10739-2 0  9995,2 53618  53.2162 101.2019 0001591 106.3230 253.7937 15.08858335 30037,6917.824,95.436,540.79,538.589,0.0
53618.0,STARLINK-4604,PAYLOAD,2023-03-13 02:37:04,15.08842155,0.0001367,53.2166,98.8227,97.0231,263.0917,0.00041552,6.332e-05,0.0,0 STARLINK-4604,1 53618U 22104AG  23072.10907918  .00006332  00000-0  41552-3 0  9995,2 53618  53.2166  98.8227 0001367  97.0231 263.0917 15.08842155 30115,6917.874,95.437,540.684,538.793,0.0
53618.0,STARLINK-4604,PAYLOAD,2023-03-13 10:33:59,15.08856006,0.0001423,53.2165,97.3359,96.3687,263.7467,0.00089628,0.00014011,0.0,0 STARLINK-4604,1 53618U 22104AG  23072.44027684  .00014011  00000-0  89628-3 0  9994,2 53618  53.2165  97.3359 0001423  96.3687 263.7467 15.08856006 30166,6917.831,95.437,540.681,538.712,0.0
53618.0,STARLINK-4604,PAYLOAD,2023-03-14 05:38:37,15.08845051,0.000172,53.2169,93.7672,88.189,271.9299,0.00084994,0.00013267,0.0,0 STARLINK-4604,1 53618U 22104AG  23073.23516078  .00013267  00000-0  84994-3 0  9995,2 53618  53.2169  93.7672 0001720  88.1890 271.9299 15.08845051 30288,6917.865,95.437,540.92,538.54,0.0
53618.0,STARLINK-4604,PAYLOAD,2023-03-14 08:49:24,15.08841344,0.0001749,53.2173,93.1712,90.0338,270.0854,0.00047849,7.336e-05,0.0,0 STARLINK-4604,1 53618U 22104AG  23073.36764075  .00007336  00000-0  47849-3 0  9999,2 53618  53.2173  93.1712 0001749  90.0338 270.0854 15.08841344 30303,6917.876,95.437,540.951,538.531,0.0
53618.0,STARLINK-4604,PAYLOAD,2023-03-14 18:21:43,15.08842694,0.0001873,53.218,91.3874,82.5812,277.5393,0.00034983,5.284e-05,0.0,0 STARLINK-4604,1 53618U 22104AG  23073.76508148  .00005284  00000-0  34983-3 0  9995,2 53618  53.2180  91.3874 0001873  82.5812 277.5393 15.08842694 30366,6917.872,95.437,541.033,538.441,0.0
53618.0,STARLINK-4604,PAYLOAD,2023-03-15 08:40:10,15.08855065,0.0002041,53.2181,88.7129,85.4661,274.6564,0.00056057,8.648e-05,0.0,0 STARLINK-4604,1 53618U 22104AG  23074.36123681  .00008648  00000-0  56057-3 0  9990,2 53618  53.2181  88.7129 0002041  85.4661 274.6564 15.08855065 30456,6917.834,95.437,541.111,538.287,0.0
53618.0,STARLINK-4604,PAYLOAD,2023-03-16 05:20:11,15.08843956,0.0001654,53.2182,84.8465,93.5587,266.5594,7.3042e-05,8.75e-06,0.0,0 STARLINK-4604,1 53618U 22104AG  23075.22235599  .00000875  00000-0  73042-4 0  9996,2 53618  53.2182  84.8465 0001654  93.5587 266.5594 15.08843956 30586,6917.868,95.437,540.878,538.589,0.0
53618.0,STARLINK-4604,PAYLOAD,2023-03-16 11:41:44,15.08846325,0.0001536,53.217,83.6571,88.9107,271.2061,0.00012592,1.717e-05,0.0,0 STARLINK-4604,1 53618U 22104AG  23075.48731493  .00001717  00000-0  12592-3 0  9996,2 53618  53.2170  83.6571 0001536  88.9107 271.2061 15.08846325 30623,6917.861,95.437,540.789,538.663,0.0
53618.0,STARLINK-4604,PAYLOAD,2023-03-16 18:03:17,15.08831332,0.0001996,53.2177,82.4697,76.4905,283.6309,-0.00012168,-2.224e-05,0.0,0 STARLINK-4604,1 53618U 22104AG  23075.75228339 -.00002224  00000-0 -12168-3 0  9991,2 53618  53.2177  82.4697 0001996  76.4905 283.6309 15.08831332 30662,6917.907,95.438,541.153,538.391,0.0
53618.0,STARLINK-4604,PAYLOAD,2023-03-17 11:32:31,15.08839012,0.0001535,53.2176,79.197,82.0317,278.0849,0.00024548,3.621e-05,0.0,0 STARLINK-4604,1 53618U 22104AG  23076.48092209  .00003621  00000-0  24548-3 0  9992,2 53618  53.2176  79.1970 0001535  82.0317 278.0849 15.08839012 30779,6917.883,95.438,540.81,538.687,0.0
53618.0,STARLINK-4604,PAYLOAD,2023-03-18 09:47:55,15.08857902,0.000149,53.2176,75.0338,83.5592,276.5569,0.00074851,0.0001165,0.0,0 STARLINK-4604,1 53618U 22104AG  23077.40828018  .00011650  00000-0  74851-3 0  9993,2 53618  53.2176  75.0338 0001490  83.5592 276.5569 15.08857902 30919,6917.826,95.436,540.721,538.66,0.0
53618.0,STARLINK-4604,PAYLOAD,2023-03-19 06:27:56,15.08842212,0.0001282,53.2161,71.1676,77.2012,282.9123,0.00023253,3.415e-05,0.0,0 STARLINK-4604,1 53618U 22104AG  23078.26940027  .00003415  00000-0  23253-3 0  9993,2 53618  53.2161  71.1676 0001282  77.2012 282.9123 15.08842212 31041,6917.874,95.437,540.625,538.852,0.0
53618.0,STARLINK-4604,PAYLOAD,2023-03-19 16:00:15,15.08843454,9.74e-05,53.2157,69.3827,69.7634,290.3463,0.00010146,1.327e-05,0.0,0 STARLINK-4604,1 53618U 22104AG  23078.66684054  .00001327  00000-0  10146-3 0  9999,2 53618  53.2157  69.3827 0000974  69.7634 290.3463 15.08843454 31102,6917.87,95.437,540.409,539.061,0.0
53618.0,STARLINK-4604,PAYLOAD,2023-03-20 09:29:29,15.08849727,0.0001353,53.2184,66.1142,92.6609,267.4538,0.00014912,2.087e-05,0.0,0 STARLINK-4604,1 53618U 22104AG  23079.39547836  .00002087  00000-0  14912-3 0  9995,2 53618  53.2184  66.1142 0001353  92.6609 267.4538 15.08849727 31215,6917.851,95.437,540.652,538.78,0.0
53618.0,STARLINK-4604,PAYLOAD,2023-03-20 15:51:02,15.0883434,0.0001546,53.2176,64.9223,89.6784,270.4385,-5.5855e-05,-1.177e-05,0.0,0 STARLINK-4604,1 53618U 22104AG  23079.66044448 -.00001177  00000-0 -55855-4 0  9999,2 53618  53.2176  64.9223 0001546  89.6784 270.4385 15.08834340 31259,6917.898,95.438,540.832,538.693,0.0
53618.0,STARLINK-4604,PAYLOAD,2023-03-21 06:09:30,15.08845062,0.0001114,53.2178,62.2488,102.7198,257.3919,0.00017021,2.422e-05,0.0,0 STARLINK-4604,1 53618U 22104AG  23080.25660082  .00002422  00000-0  17021-3 0  9998,2 53618  53.2178  62.2488 0001114 102.7198 257.3919 15.08845062 31342,6917.865,95.437,540.501,538.959,0.0
53618.0,STARLINK-4604,PAYLOAD,2023-03-21 07:44:53,15.08845666,0.0001107,53.2174,61.9508,102.7423,257.3693,0.00019019,2.741e-05,0.0,0 STARLINK-4604,1 53618U 22104AG  23080.32284030  .00002741  00000-0  19019-3 0  9994,2 53618  53.2174  61.9508 0001107 102.7423 257.3693 15.08845666 31350,6917.863,95.437,540.494,538.962,0.0
53618.0,STARLINK-4604,PAYLOAD,2023-03-22 06:00:17,15.08840032,0.0001266,53.2182,57.7869,99.348,260.7655,0.00011601,1.559e-05,0.0,0 STARLINK-4604,1 53618U 22104AG  23081.25020699  .00001559  00000-0  11601-3 0  9991,2 53618  53.2182  57.7869 0001266  99.3480 260.7655 15.08840032 31495,6917.88,95.438,540.621,538.869,0.0
53618.0,STARLINK-4604,PAYLOAD,2023-03-22 15:32:36,15.08830703,9.8e-05,53.2191,56.0007,92.3229,267.7875,3.4979e-05,2.69e-06,0.0,0 STARLINK-4604,1 53618U 22104AG  23081.64764805  .00000269  00000-0  34979-4 0  9999,2 53618  53.2191  56.0007 0000980  92.3229 267.7875 15.08830703 31559,6917.909,95.438,540.452,539.096,0.0
53618.0,STARLINK-4604,PAYLOAD,2023-03-23 07:26:28,15.08853692,0.0001226,53.2173,53.029,106.6642,253.4485,0.0014124,0.0002227,0.0,0 STARLINK-4604,1 53618U 22104AG  23082.31004675  .00022270  00000-0  14124-2 0  9990,2 53618  53.2173  53.0290 0001226 106.6642 253.4485 15.08853692 31654,6917.839,95.437,540.552,538.855,0.0
53618.0,STARLINK-4604,PAYLOAD,2023-03-23 15:23:23,15.08839705,9e-05,53.2175,51.5444,77.3503,282.759,0.00050539,7.765e-05,0.0,0 STARLINK-4604,1 53618U 22104AG  23082.64124986  .00007765  00000-0  50539-3 0  9997,2 53618  53.2175  51.5444 0000900  77.3503 282.7590 15.08839705 31705,6917.881,95.438,540.369,539.124,0.0
53618.0,STARLINK-4604,PAYLOAD,2023-03-24 04:06:28,15.08893896,0.0001219,53.2171,49.1635,82.4644,277.6487,0.0027435,0.0004371,0.0,0 STARLINK-4604,1 53618U 22104AG  23083.17116493  .00043710  00000-0  27435-2 0  9998,2 53618  53.2171  49.1635 0001219  82.4644 277.6487 15.08893896 31780,6917.716,95.434,540.424,538.737,0.0
53618.0,STARLINK-4604,PAYLOAD,2023-03-24 07:17:14,15.08931316,0.0001446,53.2186,48.5676,90.2791,269.8367,0.0043112,0.00069171,0.0,0 STARLINK-4604,1 53618U 22104AG  23083.30363866  .00069171  00000-0  43112-2 0  9990,2 53618  53.2186  48.5676 0001446  90.2791 269.8367 15.08931316 31809,6917.601,95.432,540.467,538.466,0.0
53618.0,STARLINK-4604,PAYLOAD,2023-03-25 03:57:15,15.08851537,6.17e-05,53.2186,44.7061,90.9922,269.114,0.0013388,0.0002109,0.0,0 STARLINK-4604,1 53618U 22104AG  23084.16476223  .00021090  00000-0  13388-2 0  9997,2 53618  53.2186  44.7061 0000617  90.9922 269.1140 15.08851537 31939,6917.845,95.437,540.137,539.283,0.0
53618.0,STARLINK-4604,PAYLOAD,2023-03-26 03:48:03,15.08834475,9.01e-05,53.2185,40.2448,112.3304,247.7783,0.0019808,0.00031372,0.0,0 STARLINK-4604,1 53618U 22104AG  23085.15836873  .00031372  00000-0  19808-2 0  9995,2 53618  53.2185  40.2448 0000901 112.3304 247.7783 15.08834475 32081,6917.897,95.438,540.386,539.139,0.0
53618.0,STARLINK-4604,PAYLOAD,2023-03-26 06:58:49,15.08842867,9.6e-05,53.2186,39.6501,109.1618,250.9478,0.0023228,0.00036876,0.0,0 STARLINK-4604,1 53618U 22104AG  23085.29084953  .00036876  00000-0  23228-2 0  9999,2 53618  53.2186  39.6501 0000960 109.1618 250.9478 15.08842867 32105,6917.872,95.437,540.401,539.073,0.0
53618.0,STARLINK-4604,PAYLOAD,2023-03-27 03:38:50,15.0884561,0.0001113,53.2178,35.7833,108.743,251.3683,0.00085795,0.00013395,0.0,0 STARLINK-4604,1 53618U 22104AG  23086.15197387  .00013395  00000-0  85795-3 0  9990,2 53618  53.2178  35.7833 0001113 108.7430 251.3683 15.08845610 32235,6917.863,95.437,540.498,538.958,0.0
